{"type": "FeatureCollection", "features": [ {"type": "Feature", "properties": {"norad_id": 54234, "name": "NOAA 21 (JPSS-2)", "group": "weather", "lat": -63.372172206391554, "lon": -54.41486274024657, "alt_km": 834.2031416234222, "timestamp": "2025-12-17T10:52:53.991948+00:00", "meta": {"OBJECT_NAME": "NOAA 21 (JPSS-2)", "OBJECT_ID": "2022-150A", "EPOCH": "2025-12-16T23:20:40.464384", "MEAN_MOTION": 14.19525482, "ECCENTRICITY": 0.00020432, "INCLINATION": 98.7466, "RA_OF_ASC_NODE": 287.2282, "ARG_OF_PERICENTER": 29.8355, "MEAN_ANOMALY": 330.2937, "EPHEMERIS_TYPE": 0, "CLASSIFICATION_TYPE": "U", "NORAD_CAT_ID": 54234, "ELEMENT_SET_NO": 999, "REV_AT_EPOCH": 16069, "BSTAR": 4.7676344e-05, "MEAN_MOTION_DOT": 5.7e-07, "MEAN_MOTION_DDOT": 0}, "tle": {"line1": "1 54234U 22150A   25350.97269056  .00000057  00000+0  47676-4 0  9992", "line2": "2 54234  98.7466 287.2282 0002043  29.8355 330.2937 14.19525482160692"}}, "geometry": {"type": "Point", "coordinates": [-54.41486274024657, -63.372172206391554]}}, {"type": "Feature", "properties": {"norad_id": 54743, "name": "METEOSAT-12 (MTG-I1)", "group": "weather", "lat": -0.5140992559232258, "lon": -110.75511850547542, "alt_km": 35780.30447383601, "timestamp": "2025-12-17T10:52:53.991960+00:00", "meta": {"OBJECT_NAME": "METEOSAT-12 (MTG-I1)", "OBJECT_ID": "2022-170C", "EPOCH": "2025-12-16T16:46:48.897984", "MEAN_MOTION": 1.00269992, "ECCENTRICITY": 0.00015389, "INCLINATION": 0.6909, "RA_OF_ASC_NODE": 24.2614, "ARG_OF_PERICENTER": 239.3443, "MEAN_ANOMALY": 73.397, "EPHEMERIS_TYPE": 0, "CLASSIFICATION_TYPE": "U", "NORAD_CAT_ID": 54743, "ELEMENT_SET_NO": 999, "REV_AT_EPOCH": 1114, "BSTAR": 0, "MEAN_MOTION_DOT": 1.6e-07, "MEAN_MOTION_DDOT": 0}, "tle": {"line1": "1 54743U 22170C   25350.69917706  .00000016  00000+0  00000+0 0  9990", "line2": "2 54743   0.6909  24.2614 0001538 239.3443  73.3970  1.00269992 11147"}}, "geometry": {"type": "Point", "coordinates": [-110.75511850547542, -0.5140992559232258]}}, {"type": "Feature", "properties": {"norad_id": 55973, "name": "TIANMU-1 03", "group": "weather", "lat": 60.097173319678674, "lon": -12.50182518275842, "alt_km": 436.2787816263062, "timestamp": "2025-12-17T10:52:53.991974+00:00", "meta": {"OBJECT_NAME": "TIANMU-1 03", "OBJECT_ID": "2023-039A", "EPOCH": "2025-12-16T23:27:31.794912", "MEAN_MOTION": 15.41048185, "ECCENTRICITY": 0.00042018, "INCLINATION": 97.5101, "RA_OF_ASC_NODE": 153.7473, "ARG_OF_PERICENTER": 49.1814, "MEAN_ANOMALY": 310.9796, "EPHEMERIS_TYPE": 0, "CLASSIFICATION_TYPE": "U", "NORAD_CAT_ID": 55973, "ELEMENT_SET_NO": 999, "REV_AT_EPOCH": 15271, "BSTAR": 0.00029890814, "MEAN_MOTION_DOT": 0.00012265, "MEAN_MOTION_DDOT": 0}, "tle": {"line1": "1 55973U 23039A   25350.97745133  .00012265  00000+0  29891-3 0  9997", "line2": "2 55973  97.5101 153.7473 0004201  49.1814 310.9796 15.41048185152716"}}, "geometry": {"type": "Point", "coordinates": [-12.50182518275842, 60.097173319678674]}}, {"type": "Feature", "properties": {"norad_id": 55974, "name": "TIANMU-1 04", "group": "weather", "lat": -57.88080646317326, "lon": -38.6942650799652, "alt_km": 452.29843677591543, "timestamp": "2025-12-17T10:52:53.991985+00:00", "meta": {"OBJECT_NAME": "TIANMU-1 04", "OBJECT_ID": "2023-039B", "EPOCH": "2025-12-17T00:30:04.921920", "MEAN_MOTION": 15.41388813, "ECCENTRICITY": 0.0004869, "INCLINATION": 97.5033, "RA_OF_ASC_NODE": 152.9813, "ARG_OF_PERICENTER": 43.3559, "MEAN_ANOMALY": 316.807, "EPHEMERIS_TYPE": 0, "CLASSIFICATION_TYPE": "U", "NORAD_CAT_ID": 55974, "ELEMENT_SET_NO": 999, "REV_AT_EPOCH": 15272, "BSTAR": 0.00031983575, "MEAN_MOTION_DOT": 0.00013282, "MEAN_MOTION_DDOT": 0}, "tle": {"line1": "1 55974U 23039B   25351.02089030  .00013282  00000+0  31984-3 0  9998", "line2": "2 55974  97.5033 152.9813 0004869  43.3559 316.8070 15.41388813152728"}}, "geometry": {"type": "Point", "coordinates": [-38.6942650799652, -57.88080646317326]}}, {"type": "Feature", "properties": {"norad_id": 55975, "name": "TIANMU-1 05", "group": "weather", "lat": -80.43928253403509, "lon": -77.61998015330079, "alt_km": 453.209324278836, "timestamp": "2025-12-17T10:52:53.991995+00:00", "meta": {"OBJECT_NAME": "TIANMU-1 05", "OBJECT_ID": "2023-039C", "EPOCH": "2025-12-17T00:23:19.184928", "MEAN_MOTION": 15.41006729, "ECCENTRICITY": 0.00042516, "INCLINATION": 97.5079, "RA_OF_ASC_NODE": 153.4691, "ARG_OF_PERICENTER": 66.6696, "MEAN_ANOMALY": 293.4997, "EPHEMERIS_TYPE": 0, "CLASSIFICATION_TYPE": "U", "NORAD_CAT_ID": 55975, "ELEMENT_SET_NO": 999, "REV_AT_EPOCH": 15270, "BSTAR": 0.00031517875, "MEAN_MOTION_DOT": 0.00012921, "MEAN_MOTION_DDOT": 0}, "tle": {"line1": "1 55975U 23039C   25351.01619427  .00012921  00000+0  31518-3 0  9999", "line2": "2 55975  97.5079 153.4691 0004251  66.6696 293.4997 15.41006729152703"}}, "geometry": {"type": "Point", "coordinates": [-77.61998015330079, -80.43928253403509]}}, {"type": "Feature", "properties": {"norad_id": 55976, "name": "TIANMU-1 06", "group": "weather", "lat": -47.016447132050665, "lon": -33.74944736401418, "alt_km": 451.7177902847334, "timestamp": "2025-12-17T10:52:53.992006+00:00", "meta": {"OBJECT_NAME": "TIANMU-1 06", "OBJECT_ID": "2023-039D", "EPOCH": "2025-12-17T00:33:00.397728", "MEAN_MOTION": 15.41440812, "ECCENTRICITY": 0.00045424, "INCLINATION": 97.509, "RA_OF_ASC_NODE": 153.9445, "ARG_OF_PERICENTER": 61.1935, "MEAN_ANOMALY": 298.9767, "EPHEMERIS_TYPE": 0, "CLASSIFICATION_TYPE": "U", "NORAD_CAT_ID": 55976, "ELEMENT_SET_NO": 999, "REV_AT_EPOCH": 15272, "BSTAR": 0.0003206903, "MEAN_MOTION_DOT": 0.00013341, "MEAN_MOTION_DDOT": 0}, "tle": {"line1": "1 55976U 23039D   25351.02292127  .00013341  00000+0  32069-3 0  9994", "line2": "2 55976  97.5090 153.9445 0004542  61.1935 298.9767 15.41440812152720"}}, "geometry": {"type": "Point", "coordinates": [-33.74944736401418, -47.016447132050665]}}, {"type": "Feature", "properties": {"norad_id": 56232, "name": "FENGYUN 3G", "group": "weather", "lat": -10.949977289555642, "lon": 32.47714997420078, "alt_km": 401.38908571578213, "timestamp": "2025-12-17T10:52:53.992017+00:00", "meta": {"OBJECT_NAME": "FENGYUN 3G", "OBJECT_ID": "2023-055A", "EPOCH": "2025-12-16T23:14:46.987296", "MEAN_MOTION": 15.53899579, "ECCENTRICITY": 0.0009334, "INCLINATION": 49.9926, "RA_OF_ASC_NODE": 205.6291, "ARG_OF_PERICENTER": 167.6048, "MEAN_ANOMALY": 192.5151, "EPHEMERIS_TYPE": 0, "CLASSIFICATION_TYPE": "U", "NORAD_CAT_ID": 56232, "ELEMENT_SET_NO": 999, "REV_AT_EPOCH": 15168, "BSTAR": 0.00038747736, "MEAN_MOTION_DOT": 0.0002512, "MEAN_MOTION_DDOT": 0}, "tle": {"line1": "1 56232U 23055A   25350.96859939  .00025120  00000+0  38748-3 0  9998", "line2": "2 56232  49.9926 205.6291 0009334 167.6048 192.5151 15.53899579151681"}}, "geometry": {"type": "Point", "coordinates": [32.47714997420078, -10.949977289555642]}}, {"type": "Feature", "properties": {"norad_id": 57166, "name": "METEOR-M2 3", "group": "weather", "lat": -78.18999781728735, "lon": 91.54246944412151, "alt_km": 818.4906754526946, "timestamp": "2025-12-17T10:52:53.992029+00:00", "meta": {"OBJECT_NAME": "METEOR-M2 3", "OBJECT_ID": "2023-091A", "EPOCH": "2025-12-16T23:27:41.182272", "MEAN_MOTION": 14.24026559, "ECCENTRICITY": 0.00036612, "INCLINATION": 98.6375, "RA_OF_ASC_NODE": 44.4428, "ARG_OF_PERICENTER": 356.4307, "MEAN_ANOMALY": 3.6846, "EPHEMERIS_TYPE": 0, "CLASSIFICATION_TYPE": "U", "NORAD_CAT_ID": 57166, "ELEMENT_SET_NO": 999, "REV_AT_EPOCH": 12858, "BSTAR": 2.1417615e-05, "MEAN_MOTION_DOT": 6e-08, "MEAN_MOTION_DDOT": 0}, "tle": {"line1": "1 57166U 23091A   25350.97755998  .00000006  00000+0  21418-4 0  9999", "line2": "2 57166  98.6375  44.4428 0003661 356.4307   3.6846 14.24026559128584"}}, "geometry": {"type": "Point", "coordinates": [91.54246944412151, -78.18999781728735]}}, {"type": "Feature", "properties": {"norad_id": 57399, "name": "TIANMU-1 07", "group": "weather", "lat": 67.16173587551586, "lon": 23.509241171813812, "alt_km": 471.1246446139212, "timestamp": "2025-12-17T10:52:53.992041+00:00", "meta": {"OBJECT_NAME": "TIANMU-1 07", "OBJECT_ID": "2023-101A", "EPOCH": "2025-12-16T23:34:59.676096", "MEAN_MOTION": 15.28133222, "ECCENTRICITY": 0.00054501, "INCLINATION": 97.2878, "RA_OF_ASC_NODE": 40.7393, "ARG_OF_PERICENTER": 70.7921, "MEAN_ANOMALY": 289.3908, "EPHEMERIS_TYPE": 0, "CLASSIFICATION_TYPE": "U", "NORAD_CAT_ID": 57399, "ELEMENT_SET_NO": 999, "REV_AT_EPOCH": 13380, "BSTAR": 0.00021445216, "MEAN_MOTION_DOT": 5.811e-05, "MEAN_MOTION_DDOT": 0}, "tle": {"line1": "1 57399U 23101A   25350.98263514  .00005811  00000+0  21445-3 0  9996", "line2": "2 57399  97.2878  40.7393 0005450  70.7921 289.3908 15.28133222133805"}}, "geometry": {"type": "Point", "coordinates": [23.509241171813812, 67.16173587551586]}}, {"type": "Feature", "properties": {"norad_id": 57400, "name": "TIANMU-1 08", "group": "weather", "lat": -68.61045813279515, "lon": -158.070332588155, "alt_km": 493.80124228922523, "timestamp": "2025-12-17T10:52:53.992054+00:00", "meta": {"OBJECT_NAME": "TIANMU-1 08", "OBJECT_ID": "2023-101B", "EPOCH": "2025-12-16T22:47:27.970656", "MEAN_MOTION": 15.28115804, "ECCENTRICITY": 0.00074031, "INCLINATION": 97.2866, "RA_OF_ASC_NODE": 40.5043, "ARG_OF_PERICENTER": 72.2992, "MEAN_ANOMALY": 287.9055, "EPHEMERIS_TYPE": 0, "CLASSIFICATION_TYPE": "U", "NORAD_CAT_ID": 57400, "ELEMENT_SET_NO": 999, "REV_AT_EPOCH": 13379, "BSTAR": 0.00022163325, "MEAN_MOTION_DOT": 6.007e-05, "MEAN_MOTION_DDOT": 0}, "tle": {"line1": "1 57400U 23101B   25350.94962929  .00006007  00000+0  22163-3 0  9997", "line2": "2 57400  97.2866  40.5043 0007403  72.2992 287.9055 15.28115804133791"}}, "geometry": {"type": "Point", "coordinates": [-158.070332588155, -68.61045813279515]}}]}